[{"OBJECT_NAME":"HAWK-2C","OBJECT_ID":"2021-006CT","EPOCH":"2026-03-09T16:13:22.454976","MEAN_MOTION":15.33286436,"ECCENTRICITY":0.0006943,"INCLINATION":97.2417,"RA_OF_ASC_NODE":114.9961,"ARG_OF_PERICENTER":184.0877,"MEAN_ANOMALY":176.031,"EPHEMERIS_TYPE":0,"CLASSIFICATION_TYPE":"U","NORAD_CAT_ID":47502,"ELEMENT_SET_NO":999,"REV_AT_EPOCH":28424,"BSTAR":0.00025492914,"MEAN_MOTION_DOT":8.129e-5,"MEAN_MOTION_DDOT":0},{"OBJECT_NAME":"STARLINK-32287","OBJECT_ID":"2024-138D","EPOCH":"2026-03-09T21:18:41.226624","MEAN_MOTION":15.30196787,"ECCENTRICITY":9.391e-5,"INCLINATION":53.1605,"RA_OF_ASC_NODE":308.9931,"ARG_OF_PERICENTER":89.9145,"MEAN_ANOMALY":270.1963,"EPHEMERIS_TYPE":0,"CLASSIFICATION_TYPE":"U","NORAD_CAT_ID":60358,"ELEMENT_SET_NO":999,"REV_AT_EPOCH":9065,"BSTAR":0.00022593898,"MEAN_MOTION_DOT":6.338e-5,"MEAN_MOTION_DDOT":0}]
